{"type": "FeatureCollection", "features": [ {"type": "Feature", "properties": {"norad_id": 38220, "name": "COSMOS 2251 DEB", "group": "cosmos-2251-debris", "lat": 13.454442708829857, "lon": -140.21761945864122, "alt_km": 591.0122505321569, "timestamp": "2025-12-24T22:42:22.432285+00:00", "meta": {"OBJECT_NAME": "COSMOS 2251 DEB", "OBJECT_ID": "1993-036BTL", "EPOCH": "2025-12-22T10:29:04.431840", "MEAN_MOTION": 14.93441795, "ECCENTRICITY": 0.00057678, "INCLINATION": 74.0145, "RA_OF_ASC_NODE": 48.7677, "ARG_OF_PERICENTER": 19.2248, "MEAN_ANOMALY": 340.9152, "EPHEMERIS_TYPE": 0, "CLASSIFICATION_TYPE": "U", "NORAD_CAT_ID": 38220, "ELEMENT_SET_NO": 999, "REV_AT_EPOCH": 71515, "BSTAR": 0.0032852202, "MEAN_MOTION_DOT": 0.00034688, "MEAN_MOTION_DDOT": 0}, "tle": {"line1": "1 38220U 93036BTL 25356.43685685  .00034688  00000+0  32852-2 0  9992", "line2": "2 38220  74.0145  48.7677 0005767  19.2248 340.9152 14.93441795715158"}}, "geometry": {"type": "Point", "coordinates": [-140.21761945864122, 13.454442708829857]}}, {"type": "Feature", "properties": {"norad_id": 38479, "name": "COSMOS 2251 DEB", "group": "cosmos-2251-debris", "lat": 43.01441197201233, "lon": 177.26580002186847, "alt_km": 803.3742099376732, "timestamp": "2025-12-24T22:42:22.432295+00:00", "meta": {"OBJECT_NAME": "COSMOS 2251 DEB", "OBJECT_ID": "1993-036BTP", "EPOCH": "2025-12-23T05:36:33.154848", "MEAN_MOTION": 14.38410381, "ECCENTRICITY": 0.00839559, "INCLINATION": 74.0057, "RA_OF_ASC_NODE": 164.9051, "ARG_OF_PERICENTER": 271.8436, "MEAN_ANOMALY": 269.121, "EPHEMERIS_TYPE": 0, "CLASSIFICATION_TYPE": "U", "NORAD_CAT_ID": 38479, "ELEMENT_SET_NO": 999, "REV_AT_EPOCH": 64838, "BSTAR": 0.0020977765, "MEAN_MOTION_DOT": 6.644e-05, "MEAN_MOTION_DDOT": 0}, "tle": {"line1": "1 38479U 93036BTP 25357.23371707  .00006644  00000+0  20978-2 0  9991", "line2": "2 38479  74.0057 164.9051 0083955 271.8436 269.1210 14.38410381648386"}}, "geometry": {"type": "Point", "coordinates": [177.26580002186847, 43.01441197201233]}}, {"type": "Feature", "properties": {"norad_id": 38481, "name": "COSMOS 2251 DEB", "group": "cosmos-2251-debris", "lat": -15.521795304200564, "lon": 171.04893152942884, "alt_km": 907.2289432129282, "timestamp": "2025-12-24T22:42:22.432305+00:00", "meta": {"OBJECT_NAME": "COSMOS 2251 DEB", "OBJECT_ID": "1993-036BTR", "EPOCH": "2025-12-24T06:15:11.174400", "MEAN_MOTION": 13.94884557, "ECCENTRICITY": 0.0234926, "INCLINATION": 73.9323, "RA_OF_ASC_NODE": 347.6422, "ARG_OF_PERICENTER": 285.827, "MEAN_ANOMALY": 71.7075, "EPHEMERIS_TYPE": 0, "CLASSIFICATION_TYPE": "U", "NORAD_CAT_ID": 38481, "ELEMENT_SET_NO": 999, "REV_AT_EPOCH": 59221, "BSTAR": 0.001677402, "MEAN_MOTION_DOT": 2.81e-05, "MEAN_MOTION_DDOT": 0}, "tle": {"line1": "1 38481U 93036BTR 25358.26054600  .00002810  00000+0  16774-2 0  9998", "line2": "2 38481  73.9323 347.6422 0234926 285.8270  71.7075 13.94884557592219"}}, "geometry": {"type": "Point", "coordinates": [171.04893152942884, -15.521795304200564]}}, {"type": "Feature", "properties": {"norad_id": 38483, "name": "COSMOS 2251 DEB", "group": "cosmos-2251-debris", "lat": -8.710705942573659, "lon": -12.569288381483545, "alt_km": 812.9900490955979, "timestamp": "2025-12-24T22:42:22.432315+00:00", "meta": {"OBJECT_NAME": "COSMOS 2251 DEB", "OBJECT_ID": "1993-036BTT", "EPOCH": "2025-12-12T08:16:48.530496", "MEAN_MOTION": 14.28787654, "ECCENTRICITY": 0.01107994, "INCLINATION": 74.262, "RA_OF_ASC_NODE": 12.4521, "ARG_OF_PERICENTER": 118.0167, "MEAN_ANOMALY": 243.2246, "EPHEMERIS_TYPE": 0, "CLASSIFICATION_TYPE": "U", "NORAD_CAT_ID": 38483, "ELEMENT_SET_NO": 999, "REV_AT_EPOCH": 63472, "BSTAR": 0.0012977102, "MEAN_MOTION_DOT": 3.471e-05, "MEAN_MOTION_DDOT": 0}, "tle": {"line1": "1 38483U 93036BTT 25346.34500614  .00003471  00000+0  12977-2 0  9992", "line2": "2 38483  74.2620  12.4521 0110799 118.0167 243.2246 14.28787654634722"}}, "geometry": {"type": "Point", "coordinates": [-12.569288381483545, -8.710705942573659]}}, {"type": "Feature", "properties": {"norad_id": 38486, "name": "COSMOS 2251 DEB", "group": "cosmos-2251-debris", "lat": 46.86337007573879, "lon": -16.974847491339236, "alt_km": 666.298876728818, "timestamp": "2025-12-24T22:42:22.432326+00:00", "meta": {"OBJECT_NAME": "COSMOS 2251 DEB", "OBJECT_ID": "1993-036BTW", "EPOCH": "2025-12-19T21:49:44.280192", "MEAN_MOTION": 14.73429029, "ECCENTRICITY": 0.0030516, "INCLINATION": 73.9403, "RA_OF_ASC_NODE": 190.8021, "ARG_OF_PERICENTER": 334.2314, "MEAN_ANOMALY": 90.8371, "EPHEMERIS_TYPE": 0, "CLASSIFICATION_TYPE": "U", "NORAD_CAT_ID": 38486, "ELEMENT_SET_NO": 999, "REV_AT_EPOCH": 75540, "BSTAR": 0.0013432, "MEAN_MOTION_DOT": 8.756e-05, "MEAN_MOTION_DDOT": 0}, "tle": {"line1": "1 38486U 93036BTW 25353.90954028  .00008756  00000+0  13432-2 0  9995", "line2": "2 38486  73.9403 190.8021 0030516 334.2314  90.8371 14.73429029755403"}}, "geometry": {"type": "Point", "coordinates": [-16.974847491339236, 46.86337007573879]}}, {"type": "Feature", "properties": {"norad_id": 38487, "name": "COSMOS 2251 DEB", "group": "cosmos-2251-debris", "lat": 51.72734706990509, "lon": 29.593943561687748, "alt_km": 513.937204415487, "timestamp": "2025-12-24T22:42:22.432336+00:00", "meta": {"OBJECT_NAME": "COSMOS 2251 DEB", "OBJECT_ID": "1993-036BTX", "EPOCH": "2025-12-21T18:32:44.643552", "MEAN_MOTION": 15.1793295, "ECCENTRICITY": 0.00206459, "INCLINATION": 73.9735, "RA_OF_ASC_NODE": 14.8819, "ARG_OF_PERICENTER": 185.3276, "MEAN_ANOMALY": 174.7704, "EPHEMERIS_TYPE": 0, "CLASSIFICATION_TYPE": "U", "NORAD_CAT_ID": 38487, "ELEMENT_SET_NO": 999, "REV_AT_EPOCH": 66937, "BSTAR": 0.0019265154, "MEAN_MOTION_DOT": 0.00039496, "MEAN_MOTION_DDOT": 0}, "tle": {"line1": "1 38487U 93036BTX 25355.77273893  .00039496  00000+0  19265-2 0  9992", "line2": "2 38487  73.9735  14.8819 0020645 185.3276 174.7704 15.17932950669379"}}, "geometry": {"type": "Point", "coordinates": [29.593943561687748, 51.72734706990509]}}, {"type": "Feature", "properties": {"norad_id": 39109, "name": "COSMOS 2251 DEB", "group": "cosmos-2251-debris", "lat": 66.87853696454334, "lon": -116.5244812958801, "alt_km": 679.0765574642246, "timestamp": "2025-12-24T22:42:22.432346+00:00", "meta": {"OBJECT_NAME": "COSMOS 2251 DEB", "OBJECT_ID": "1993-036BTY", "EPOCH": "2025-12-20T22:20:27.128256", "MEAN_MOTION": 14.70767113, "ECCENTRICITY": 0.00595267, "INCLINATION": 74.0415, "RA_OF_ASC_NODE": 209.1834, "ARG_OF_PERICENTER": 310.8219, "MEAN_ANOMALY": 110.7879, "EPHEMERIS_TYPE": 0, "CLASSIFICATION_TYPE": "U", "NORAD_CAT_ID": 39109, "ELEMENT_SET_NO": 999, "REV_AT_EPOCH": 65294, "BSTAR": 0.00038726181, "MEAN_MOTION_DOT": 2.395e-05, "MEAN_MOTION_DDOT": 0}, "tle": {"line1": "1 39109U 93036BTY 25354.93086954  .00002395  00000+0  38726-3 0  9993", "line2": "2 39109  74.0415 209.1834 0059526 310.8219 110.7879 14.70767113652949"}}, "geometry": {"type": "Point", "coordinates": [-116.5244812958801, 66.87853696454334]}}, {"type": "Feature", "properties": {"norad_id": 39110, "name": "COSMOS 2251 DEB", "group": "cosmos-2251-debris", "lat": -34.92032053988283, "lon": 26.05739572099163, "alt_km": 621.027596833138, "timestamp": "2025-12-24T22:42:22.432356+00:00", "meta": {"OBJECT_NAME": "COSMOS 2251 DEB", "OBJECT_ID": "1993-036BTZ", "EPOCH": "2025-12-17T22:04:59.920608", "MEAN_MOTION": 14.72312711, "ECCENTRICITY": 0.00972569, "INCLINATION": 73.9594, "RA_OF_ASC_NODE": 51.3772, "ARG_OF_PERICENTER": 282.7235, "MEAN_ANOMALY": 255.0933, "EPHEMERIS_TYPE": 0, "CLASSIFICATION_TYPE": "U", "NORAD_CAT_ID": 39110, "ELEMENT_SET_NO": 999, "REV_AT_EPOCH": 62560, "BSTAR": 0.00028872963, "MEAN_MOTION_DOT": 1.929e-05, "MEAN_MOTION_DDOT": 0}, "tle": {"line1": "1 39110U 93036BTZ 25351.92013797  .00001929  00000+0  28873-3 0  9990", "line2": "2 39110  73.9594  51.3772 0097256 282.7235 255.0933 14.72312711625601"}}, "geometry": {"type": "Point", "coordinates": [26.05739572099163, -34.92032053988283]}}, {"type": "Feature", "properties": {"norad_id": 39111, "name": "COSMOS 2251 DEB", "group": "cosmos-2251-debris", "lat": -16.642843864746602, "lon": 10.793959173126018, "alt_km": 513.0068995890342, "timestamp": "2025-12-24T22:42:22.432367+00:00", "meta": {"OBJECT_NAME": "COSMOS 2251 DEB", "OBJECT_ID": "1993-036BUA", "EPOCH": "2025-12-01T22:58:55.551360", "MEAN_MOTION": 15.11912111, "ECCENTRICITY": 0.00109111, "INCLINATION": 74.0059, "RA_OF_ASC_NODE": 63.5328, "ARG_OF_PERICENTER": 39.1207, "MEAN_ANOMALY": 321.0773, "EPHEMERIS_TYPE": 0, "CLASSIFICATION_TYPE": "U", "NORAD_CAT_ID": 39111, "ELEMENT_SET_NO": 999, "REV_AT_EPOCH": 8982, "BSTAR": 0.0056424119, "MEAN_MOTION_DOT": 0.00098096, "MEAN_MOTION_DDOT": 0}, "tle": {"line1": "1 39111U 93036BUA 25335.95758740  .00098096  00000+0  56424-2 0  9993", "line2": "2 39111  74.0059  63.5328 0010911  39.1207 321.0773 15.11912111 89826"}}, "geometry": {"type": "Point", "coordinates": [10.793959173126018, -16.642843864746602]}}, {"type": "Feature", "properties": {"norad_id": 39546, "name": "COSMOS 2251 DEB", "group": "cosmos-2251-debris", "lat": 18.362260589184185, "lon": -73.23832420911673, "alt_km": 600.8417437704948, "timestamp": "2025-12-24T22:42:22.432378+00:00", "meta": {"OBJECT_NAME": "COSMOS 2251 DEB", "OBJECT_ID": "1993-036BUC", "EPOCH": "2025-12-24T01:04:07.392864", "MEAN_MOTION": 14.92354687, "ECCENTRICITY": 0.00441772, "INCLINATION": 73.9983, "RA_OF_ASC_NODE": 114.0416, "ARG_OF_PERICENTER": 272.6339, "MEAN_ANOMALY": 86.9787, "EPHEMERIS_TYPE": 0, "CLASSIFICATION_TYPE": "U", "NORAD_CAT_ID": 39546, "ELEMENT_SET_NO": 999, "REV_AT_EPOCH": 64605, "BSTAR": 0.0014192784, "MEAN_MOTION_DOT": 0.00014787, "MEAN_MOTION_DDOT": 0}, "tle": {"line1": "1 39546U 93036BUC 25358.04453001  .00014787  00000+0  14193-2 0  9994", "line2": "2 39546  73.9983 114.0416 0044177 272.6339  86.9787 14.92354687646055"}}, "geometry": {"type": "Point", "coordinates": [-73.23832420911673, 18.362260589184185]}}]}